[{"OBJECT_NAME":"STARLINK-4652","OBJECT_ID":"2022-107AN","EPOCH":"2026-03-09T16:59:14.743392","MEAN_MOTION":15.08835632,"ECCENTRICITY":0.0001273,"INCLINATION":53.2171,"RA_OF_ASC_NODE":254.2298,"ARG_OF_PERICENTER":84.7459,"MEAN_ANOMALY":275.3679,"EPHEMERIS_TYPE":0,"CLASSIFICATION_TYPE":"U","NORAD_CAT_ID":53736,"ELEMENT_SET_NO":999,"REV_AT_EPOCH":19458,"BSTAR":8.1119435e-5,"MEAN_MOTION_DOT":1.003e-5,"MEAN_MOTION_DDOT":0},{"OBJECT_NAME":"PACE","OBJECT_ID":"2014-033N","EPOCH":"2026-03-09T22:47:44.809152","MEAN_MOTION":15.09745465,"ECCENTRICITY":0.00061206,"INCLINATION":98.125,"RA_OF_ASC_NODE":67.7953,"ARG_OF_PERICENTER":179.3374,"MEAN_ANOMALY":180.7863,"EPHEMERIS_TYPE":0,"CLASSIFICATION_TYPE":"U","NORAD_CAT_ID":40022,"ELEMENT_SET_NO":999,"REV_AT_EPOCH":63805,"BSTAR":0.00051174262,"MEAN_MOTION_DOT":8.193e-5,"MEAN_MOTION_DDOT":0}]
